NORAD_CAT_ID,OBJECT_NAME,OBJECT_TYPE,EPOCH,MEAN_MOTION,ECCENTRICITY,INCLINATION,RA_OF_ASC_NODE,ARG_OF_PERICENTER,MEAN_ANOMALY,BSTAR,MEAN_MOTION_DOT,MEAN_MOTION_DDOT,TLE_LINE0,TLE_LINE1,TLE_LINE2,SEMIMAJOR_AXIS,PERIOD,APOGEE,PERIGEE,DECAYED
51136.0,STARLINK-3253,PAYLOAD,2023-02-17 20:21:31,15.08830748,0.0001563,53.2142,268.3325,81.1046,279.0123,-0.00014354,-2.571e-05,0.0,0 STARLINK-3253,1 51136U 22005AJ  23048.84828329 -.00002571  00000-0 -14354-3 0  9993,2 51136  53.2142 268.3325 0001563  81.1046 279.0123 15.08830748 60272,6917.909,95.438,540.855,538.692,0.0
51136.0,STARLINK-3253,PAYLOAD,2023-02-17 21:56:54,15.08831947,0.0001499,53.2145,268.0349,84.3369,275.7794,-0.00012188,-2.227e-05,0.0,0 STARLINK-3253,1 51136U 22005AJ  23048.91452324 -.00002227  00000-0 -12188-3 0  9990,2 51136  53.2145 268.0349 0001499  84.3369 275.7794 15.08831947 61415,6917.905,95.438,540.807,538.733,0.0
51136.0,STARLINK-3253,PAYLOAD,2023-02-18 13:50:46,15.08833707,0.0001353,53.2148,265.0608,88.039,272.0757,0.00018505,2.658e-05,0.0,0 STARLINK-3253,1 51136U 22005AJ  23049.57692481  .00002658  00000-0  18505-3 0  9998,2 51136  53.2148 265.0608 0001353  88.0390 272.0757 15.08833707 60387,6917.9,95.438,540.701,538.829,0.0
51136.0,STARLINK-3253,PAYLOAD,2023-02-18 15:26:09,15.08840343,0.0001583,53.2137,264.764,86.9862,273.1311,6.7027e-05,7.79e-06,0.0,0 STARLINK-3253,1 51136U 22005AJ  23049.64316163  .00000779  00000-0  67027-4 0  9992,2 51136  53.2137 264.7640 0001583  86.9862 273.1311 15.08840343 61522,6917.879,95.438,540.839,538.649,0.0
51136.0,STARLINK-3253,PAYLOAD,2023-02-19 07:20:00,15.08838952,0.0001514,53.2135,261.7899,79.1494,280.9668,0.00016435,2.329e-05,0.0,0 STARLINK-3253,1 51136U 22005AJ  23050.30556383  .00002329  00000-0  16435-3 0  9996,2 51136  53.2135 261.7899 0001514  79.1494 280.9668 15.08838952 60491,6917.884,95.438,540.796,538.701,0.0
51136.0,STARLINK-3253,PAYLOAD,2023-02-19 20:03:06,15.08834599,0.0001388,53.2144,259.4102,84.777,275.3381,0.00016409,2.324e-05,0.0,0 STARLINK-3253,1 51136U 22005AJ  23050.83548759  .00002324  00000-0  16409-3 0  9998,2 51136  53.2144 259.4102 0001388  84.7770 275.3381 15.08834599 61708,6917.897,95.438,540.722,538.802,0.0
51136.0,STARLINK-3253,PAYLOAD,2023-02-20 13:32:20,15.08841238,0.0001509,53.2143,256.1391,84.7547,275.3617,9.2542e-05,1.185e-05,0.0,0 STARLINK-3253,1 51136U 22005AJ  23051.56412457  .00001185  00000-0  92542-4 0  9991,2 51136  53.2143 256.1391 0001509  84.7547 275.3617 15.08841238 60684,6917.877,95.437,540.786,538.698,0.0
51136.0,STARLINK-3253,PAYLOAD,2023-02-20 23:04:38,15.08847889,0.0001377,53.214,254.3547,82.2891,277.8258,5.847e-05,6.43e-06,0.0,0 STARLINK-3253,1 51136U 22005AJ  23051.96155851  .00000643  00000-0  58470-4 0  9997,2 51136  53.2140 254.3547 0001377  82.2891 277.8258 15.08847889 61870,6917.856,95.437,540.674,538.769,0.0
51136.0,STARLINK-3253,PAYLOAD,2023-02-21 13:23:07,15.08840687,0.0001407,53.2132,251.679,79.8871,280.228,7.699e-05,9.38e-06,0.0,0 STARLINK-3253,1 51136U 22005AJ  23052.55772112  .00000938  00000-0  76990-4 0  9992,2 51136  53.2132 251.6790 0001407  79.8871 280.2280 15.08840687 61967,6917.878,95.438,540.717,538.77,0.0
51136.0,STARLINK-3253,PAYLOAD,2023-02-21 19:44:39,15.0883925,0.0001397,53.2138,250.4883,87.4426,272.6726,0.0001848,2.654e-05,0.0,0 STARLINK-3253,1 51136U 22005AJ  23052.82267946  .00002654  00000-0  18480-3 0  9992,2 51136  53.2138 250.4883 0001397  87.4426 272.6726 15.08839250 60875,6917.883,95.438,540.714,538.781,0.0
51136.0,STARLINK-3253,PAYLOAD,2023-02-21 22:55:25,15.08846166,0.0001395,53.2138,249.8935,88.1409,271.9743,9.9074e-05,1.289e-05,0.0,0 STARLINK-3253,1 51136U 22005AJ  23052.95515622  .00001289  00000-0  99074-4 0  9995,2 51136  53.2138 249.8935 0001395  88.1409 271.9743 15.08846166 60899,6917.862,95.437,540.692,538.762,0.0
51136.0,STARLINK-3253,PAYLOAD,2023-02-22 19:35:27,15.08834169,0.0001278,53.2134,246.0265,90.2712,269.8426,6.9821e-07,-2.77e-06,0.0,0 STARLINK-3253,1 51136U 22005AJ  23053.81628550 -.00000277  00000-0  69821-6 0  9992,2 51136  53.2134 246.0265 0001278  90.2712 269.8426 15.08834169 62156,6917.898,95.438,540.647,538.879,0.0
51136.0,STARLINK-3253,PAYLOAD,2023-02-23 13:04:41,15.0884,0.0001156,53.2144,242.7569,90.8539,269.2585,3.4387e-05,2.59e-06,0.0,0 STARLINK-3253,1 51136U 22005AJ  23054.54492086  .00000259  00000-0  34387-4 0  9992,2 51136  53.2144 242.7569 0001156  90.8539 269.2585 15.08840000 62268,6917.88,95.438,540.545,538.946,0.0
51136.0,STARLINK-3253,PAYLOAD,2023-02-23 17:50:50,15.08842369,0.0001259,53.214,241.8651,91.0364,269.0772,5.9166e-05,6.54e-06,0.0,0 STARLINK-3253,1 51136U 22005AJ  23054.74363881  .00000654  00000-0  59166-4 0  9995,2 51136  53.2140 241.8651 0001259  91.0364 269.0772 15.08842369 61163,6917.873,95.437,540.609,538.867,0.0
51136.0,STARLINK-3253,PAYLOAD,2023-02-24 12:55:28,15.08841944,0.0001488,53.2158,238.2965,105.8037,254.312,-6.1126e-05,-1.261e-05,0.0,0 STARLINK-3253,1 51136U 22005AJ  23055.53852591 -.00001261  00000-0 -61126-4 0  9990,2 51136  53.2158 238.2965 0001488 105.8037 254.3120 15.08841944 61280,6917.874,95.437,540.769,538.71,0.0
51136.0,STARLINK-3253,PAYLOAD,2023-02-24 19:17:01,15.08835493,0.0001229,53.216,237.1076,103.5194,256.5935,3.4863e-05,2.67e-06,0.0,0 STARLINK-3253,1 51136U 22005AJ  23055.80348605  .00000267  00000-0  34863-4 0  9997,2 51136  53.2160 237.1076 0001229 103.5194 256.5935 15.08835493 61321,6917.894,95.438,540.609,538.909,0.0
51136.0,STARLINK-3253,PAYLOAD,2023-02-24 22:27:47,15.08836839,0.0001212,53.2159,236.5126,102.841,257.2718,4.4024e-05,4.13e-06,0.0,0 STARLINK-3253,1 51136U 22005AJ  23055.93596506  .00000413  00000-0  44024-4 0  9999,2 51136  53.2159 236.5126 0001212 102.8410 257.2718 15.08836839 62472,6917.89,95.438,540.593,538.917,0.0
51136.0,STARLINK-3253,PAYLOAD,2023-02-25 04:49:20,15.08835284,0.0001097,53.2141,235.3222,95.641,264.4707,3.5715e-05,2.81e-06,0.0,0 STARLINK-3253,1 51136U 22005AJ  23056.20092728  .00000281  00000-0  35715-4 0  9997,2 51136  53.2141 235.3222 0001097  95.6410 264.4707 15.08835284 61387,6917.895,95.438,540.519,539.001,0.0
51136.0,STARLINK-3253,PAYLOAD,2023-02-25 19:07:48,15.08836927,0.0001177,53.2148,232.6458,99.2384,260.8741,1.152e-05,-1.04e-06,0.0,0 STARLINK-3253,1 51136U 22005AJ  23056.79708919 -.00000104  00000-0  11520-4 0  9990,2 51136  53.2148 232.6458 0001177  99.2384 260.8741 15.08836927 61477,6917.89,95.438,540.569,538.941,0.0
51136.0,STARLINK-3253,PAYLOAD,2023-02-26 04:40:06,15.08841634,0.0001193,53.2149,230.8608,92.5943,267.5185,8.806e-05,1.114e-05,0.0,0 STARLINK-3253,1 51136U 22005AJ  23057.19452545  .00001114  00000-0  88060-4 0  9990,2 51136  53.2149 230.8608 0001193  92.5943 267.5185 15.08841634 62669,6917.875,95.437,540.566,538.915,0.0
51136.0,STARLINK-3253,PAYLOAD,2023-02-26 20:33:57,15.08854037,0.0001182,53.2152,227.8874,89.4518,270.661,0.00021069,3.068e-05,0.0,0 STARLINK-3253,1 51136U 22005AJ  23057.85691417  .00003068  00000-0  21069-3 0  9991,2 51136  53.2152 227.8874 0001182  89.4518 270.6610 15.08854037 61630,6917.837,95.437,540.52,538.885,0.0
51136.0,STARLINK-3253,PAYLOAD,2023-02-27 10:52:26,15.08842089,0.0001463,53.2144,225.2117,76.6417,283.4738,0.00015497,2.179e-05,0.0,0 STARLINK-3253,1 51136U 22005AJ  23058.45308591  .00002179  00000-0  15497-3 0  9996,2 51136  53.2144 225.2117 0001463  76.6417 283.4738 15.08842089 62853,6917.874,95.437,540.751,538.727,0.0
51136.0,STARLINK-3253,PAYLOAD,2023-02-27 17:13:58,15.08854889,0.0001374,53.2122,224.024,72.9749,287.1394,0.00033864,5.108e-05,0.0,0 STARLINK-3253,1 51136U 22005AJ  23058.71803947  .00005108  00000-0  33864-3 0  9993,2 51136  53.2122 224.0240 0001374  72.9749 287.1394 15.08854889 62895,6917.835,95.437,540.65,538.749,0.0
51136.0,STARLINK-3253,PAYLOAD,2023-02-28 13:53:59,15.08824298,0.0001124,53.2142,220.1568,77.9174,282.1944,-0.00033797,-5.66e-05,0.0,0 STARLINK-3253,1 51136U 22005AJ  23059.57916606 -.00005660  00000-0 -33797-3 0  9995,2 51136  53.2142 220.1568 0001124  77.9174 282.1944 15.08824298 61893,6917.928,95.439,540.571,539.016,0.0
51136.0,STARLINK-3253,PAYLOAD,2023-02-28 15:29:23,15.0882636,0.0001237,53.2141,219.8592,80.6474,279.4658,-0.00027407,-4.645e-05,0.0,0 STARLINK-3253,1 51136U 22005AJ  23059.64540623 -.00004645  00000-0 -27407-3 0  9998,2 51136  53.2141 219.8592 0001237  80.6474 279.4658 15.08826360 63034,6917.922,95.438,540.643,538.931,0.0
51136.0,STARLINK-3253,PAYLOAD,2023-02-28 17:04:46,15.08826609,0.0001155,53.2139,219.5611,92.2569,267.8555,-0.00026745,-4.54e-05,0.0,0 STARLINK-3253,1 51136U 22005AJ  23059.71164457 -.00004540  00000-0 -26745-3 0  9991,2 51136  53.2139 219.5611 0001155  92.2569 267.8555 15.08826609 61911,6917.921,95.438,540.585,538.987,0.0
51136.0,STARLINK-3253,PAYLOAD,2023-03-01 18:30:57,15.08838007,0.0001219,53.2138,214.8036,88.7268,271.3864,0.00066249,0.00010271,0.0,0 STARLINK-3253,1 51136U 22005AJ  23060.77149382  .00010271  00000-0  66249-3 0  9998,2 51136  53.2138 214.8036 0001219  88.7268 271.3864 15.08838007 63208,6917.886,95.438,540.595,538.908,0.0
51136.0,STARLINK-3253,PAYLOAD,2023-03-01 20:06:20,15.08843532,0.0001161,53.2136,214.506,88.2155,271.897,0.00092222,0.00014421,0.0,0 STARLINK-3253,1 51136U 22005AJ  23060.83773369  .00014421  00000-0  92222-3 0  9994,2 51136  53.2136 214.5060 0001161  88.2155 271.8970 15.08843532 62083,6917.87,95.437,540.538,538.931,0.0
51136.0,STARLINK-3253,PAYLOAD,2023-03-02 18:21:44,15.08857036,0.0001232,53.214,210.3431,76.4437,283.6692,0.00087884,0.00013733,0.0,0 STARLINK-3253,1 51136U 22005AJ  23061.76509261  .00013733  00000-0  87884-3 0  9998,2 51136  53.2140 210.3431 0001232  76.4437 283.6692 15.08857036 62227,6917.828,95.436,540.546,538.841,0.0
51136.0,STARLINK-3253,PAYLOAD,2023-03-03 10:15:35,15.08853234,7.3e-05,53.214,207.3691,90.4671,269.6405,0.00069319,0.00010765,0.0,0 STARLINK-3253,1 51136U 22005AJ  23062.42748907  .00010765  00000-0  69319-3 0  9999,2 51136  53.2140 207.3691 0000730  90.4671 269.6405 15.08853234 63457,6917.84,95.437,540.21,539.2,0.0
